STARLINK-37158          
1 68343U 26059Y   26094.84853064  .00195089  00000+0  96816-3 0  9999
2 68343  53.1600 231.5905 0000520  89.8849 270.2233 15.80909149  2118
STARLINK-36380          
1 68344U 26059Z   26094.85002865  .00162029  00000+0  80912-3 0  9994
2 68344  53.1601 231.6008 0000617 140.7947 219.3121 15.80873625  2117
STARLINK-37214          
1 68345U 26059AA  26094.84702942  .00146709  00000+0  73465-3 0  9999
2 68345  53.1595 231.5801 0001037  64.4755 295.6375 15.80861993  2119
STARLINK-37169          
1 68346U 26059AB  26094.78305831  .00183324  00000+0  91272-3 0  9999
2 68346  53.1599 231.8915 0000836  52.1824 307.9274 15.80873963  2104
STARLINK-37136          
1 68347U 26059AC  26094.78231051  .00249014  00000+0  12279-2 0  9990
2 68347  53.1594 231.8867 0001376  82.9980 277.1200 15.80894573  2107
STARLINK-37182          
1 68348U 26059AD  26094.84777795  .00205413  00000+0  10187-2 0  9999
2 68348  53.1599 231.5847 0000856  19.5124 340.5931 15.80894826  2114
STARLINK-37183          
1 68349U 26059AE  26094.84477797  .00179872  00000+0  89557-3 0  9996
2 68349  53.1589 231.5638 0001149 119.3658 240.7480 15.80883494  2118
CENTISPACE-1 OBJECT A   
1 68350U 26060A   26094.71725959 -.00126596  00000+0 -19085-1 0  9996
2 68350  54.9826 335.4497 0012126 317.5330  42.4730 14.74756185  1938
CENTISPACE-1 OBJECT B   
1 68351U 26060B   26094.78445363  .00002174  00000+0  35156-3 0  9994
2 68351  54.9820 335.1667 0013530 326.8800  33.1351 14.74944202  1940
CENTISPACE-1 OBJECT C   
1 68352U 26060C   26094.91841024  .00000077  00000+0  42255-4 0  9993
2 68352  54.9869 334.6172 0014687 333.2405  26.7835 14.75016738  1968
CENTISPACE-1 OBJECT D   
1 68353U 26060D   26094.78288049  .00000118  00000+0  48317-4 0  9992
2 68353  54.9868 335.1678 0011960 335.0245  25.0175 14.75008380  1949
CENTISPACE-1 OBJECT E   
1 68354U 26060E   26094.91762497  .00000080  00000+0  42709-4 0  9999
2 68354  54.9771 334.5948 0013153 335.2119  24.8247 14.74992565  1969
CENTISPACE-1 OBJECT F   
1 68355U 26060F   26094.91763061  .00000080  00000+0  42621-4 0  9991
2 68355  54.9761 334.5955 0013393 331.7491  28.2780 14.75073657  1960
CENTISPACE-1 OBJECT G   
1 68356U 26060G   26094.64570275  .00000126  00000+0  49346-4 0  9997
2 68356  54.9929 335.7064 0014233 337.9700  22.0687 14.75216843  1926
CENTISPACE-1 OBJECT H   
1 68357U 26060H   26092.40903992  .00000123  00000+0  48805-4 0  9992
2 68357  54.9838 344.8287 0013821 328.1926  31.8237 14.75277593  1599
CENTISPACE-1 OBJECT J   
1 68358U 26060J   26094.91585900  .00000080  00000+0  42543-4 0  9991
2 68358  54.9830 334.5877 0015037 333.6169  26.4063 14.75290843  1965
