[{"OBJECT_NAME":"STARLINK-37158","OBJECT_ID":"2026-059Y","EPOCH":"2026-04-04T20:21:53.047296","MEAN_MOTION":15.80909149,"ECCENTRICITY":5.201e-5,"INCLINATION":53.16,"RA_OF_ASC_NODE":231.5905,"ARG_OF_PERICENTER":89.8849,"MEAN_ANOMALY":270.2233,"EPHEMERIS_TYPE":0,"CLASSIFICATION_TYPE":"U","NORAD_CAT_ID":68343,"ELEMENT_SET_NO":999,"REV_AT_EPOCH":211,"BSTAR":0.0009681585,"MEAN_MOTION_DOT":0.00195089,"MEAN_MOTION_DDOT":0},{"OBJECT_NAME":"STARLINK-36380","OBJECT_ID":"2026-059Z","EPOCH":"2026-04-04T20:24:02.475360","MEAN_MOTION":15.80873625,"ECCENTRICITY":6.173e-5,"INCLINATION":53.1601,"RA_OF_ASC_NODE":231.6008,"ARG_OF_PERICENTER":140.7947,"MEAN_ANOMALY":219.3121,"EPHEMERIS_TYPE":0,"CLASSIFICATION_TYPE":"U","NORAD_CAT_ID":68344,"ELEMENT_SET_NO":999,"REV_AT_EPOCH":211,"BSTAR":0.00080911771,"MEAN_MOTION_DOT":0.00162029,"MEAN_MOTION_DDOT":0},{"OBJECT_NAME":"STARLINK-37214","OBJECT_ID":"2026-059AA","EPOCH":"2026-04-04T20:19:43.341888","MEAN_MOTION":15.80861993,"ECCENTRICITY":0.00010378,"INCLINATION":53.1595,"RA_OF_ASC_NODE":231.5801,"ARG_OF_PERICENTER":64.4755,"MEAN_ANOMALY":295.6375,"EPHEMERIS_TYPE":0,"CLASSIFICATION_TYPE":"U","NORAD_CAT_ID":68345,"ELEMENT_SET_NO":999,"REV_AT_EPOCH":211,"BSTAR":0.0007346461,"MEAN_MOTION_DOT":0.00146709,"MEAN_MOTION_DDOT":0},{"OBJECT_NAME":"STARLINK-37169","OBJECT_ID":"2026-059AB","EPOCH":"2026-04-04T18:47:36.237984","MEAN_MOTION":15.80873963,"ECCENTRICITY":8.363e-5,"INCLINATION":53.1599,"RA_OF_ASC_NODE":231.8915,"ARG_OF_PERICENTER":52.1824,"MEAN_ANOMALY":307.9274,"EPHEMERIS_TYPE":0,"CLASSIFICATION_TYPE":"U","NORAD_CAT_ID":68346,"ELEMENT_SET_NO":999,"REV_AT_EPOCH":210,"BSTAR":0.00091271659,"MEAN_MOTION_DOT":0.00183324,"MEAN_MOTION_DDOT":0},{"OBJECT_NAME":"STARLINK-37136","OBJECT_ID":"2026-059AC","EPOCH":"2026-04-04T18:46:31.628064","MEAN_MOTION":15.80894573,"ECCENTRICITY":0.0001376,"INCLINATION":53.1594,"RA_OF_ASC_NODE":231.8867,"ARG_OF_PERICENTER":82.998,"MEAN_ANOMALY":277.12,"EPHEMERIS_TYPE":0,"CLASSIFICATION_TYPE":"U","NORAD_CAT_ID":68347,"ELEMENT_SET_NO":999,"REV_AT_EPOCH":210,"BSTAR":0.0012279045,"MEAN_MOTION_DOT":0.00249014,"MEAN_MOTION_DDOT":0},{"OBJECT_NAME":"STARLINK-37182","OBJECT_ID":"2026-059AD","EPOCH":"2026-04-04T20:20:48.014880","MEAN_MOTION":15.80894826,"ECCENTRICITY":8.564e-5,"INCLINATION":53.1599,"RA_OF_ASC_NODE":231.5847,"ARG_OF_PERICENTER":19.5124,"MEAN_ANOMALY":340.5931,"EPHEMERIS_TYPE":0,"CLASSIFICATION_TYPE":"U","NORAD_CAT_ID":68348,"ELEMENT_SET_NO":999,"REV_AT_EPOCH":211,"BSTAR":0.0010186682,"MEAN_MOTION_DOT":0.00205413,"MEAN_MOTION_DDOT":0},{"OBJECT_NAME":"STARLINK-37183","OBJECT_ID":"2026-059AE","EPOCH":"2026-04-04T20:16:28.816608","MEAN_MOTION":15.80883494,"ECCENTRICITY":0.00011494,"INCLINATION":53.1589,"RA_OF_ASC_NODE":231.5638,"ARG_OF_PERICENTER":119.3658,"MEAN_ANOMALY":240.748,"EPHEMERIS_TYPE":0,"CLASSIFICATION_TYPE":"U","NORAD_CAT_ID":68349,"ELEMENT_SET_NO":999,"REV_AT_EPOCH":211,"BSTAR":0.00089556801,"MEAN_MOTION_DOT":0.00179872,"MEAN_MOTION_DDOT":0},{"OBJECT_NAME":"CENTISPACE-1 OBJECT A","OBJECT_ID":"2026-060A","EPOCH":"2026-04-04T17:12:51.228576","MEAN_MOTION":14.74756185,"ECCENTRICITY":0.00121268,"INCLINATION":54.9826,"RA_OF_ASC_NODE":335.4497,"ARG_OF_PERICENTER":317.533,"MEAN_ANOMALY":42.473,"EPHEMERIS_TYPE":0,"CLASSIFICATION_TYPE":"U","NORAD_CAT_ID":68350,"ELEMENT_SET_NO":999,"REV_AT_EPOCH":193,"BSTAR":-0.019084541,"MEAN_MOTION_DOT":-0.00126596,"MEAN_MOTION_DDOT":0},{"OBJECT_NAME":"CENTISPACE-1 OBJECT B","OBJECT_ID":"2026-060B","EPOCH":"2026-04-04T18:49:36.793632","MEAN_MOTION":14.74944202,"ECCENTRICITY":0.00135305,"INCLINATION":54.982,"RA_OF_ASC_NODE":335.1667,"ARG_OF_PERICENTER":326.88,"MEAN_ANOMALY":33.1351,"EPHEMERIS_TYPE":0,"CLASSIFICATION_TYPE":"U","NORAD_CAT_ID":68351,"ELEMENT_SET_NO":999,"REV_AT_EPOCH":194,"BSTAR":0.00035156248,"MEAN_MOTION_DOT":2.174e-5,"MEAN_MOTION_DDOT":0},{"OBJECT_NAME":"CENTISPACE-1 OBJECT C","OBJECT_ID":"2026-060C","EPOCH":"2026-04-04T22:02:30.644736","MEAN_MOTION":14.75016738,"ECCENTRICITY":0.00146877,"INCLINATION":54.9869,"RA_OF_ASC_NODE":334.6172,"ARG_OF_PERICENTER":333.2405,"MEAN_ANOMALY":26.7835,"EPHEMERIS_TYPE":0,"CLASSIFICATION_TYPE":"U","NORAD_CAT_ID":68352,"ELEMENT_SET_NO":999,"REV_AT_EPOCH":196,"BSTAR":4.2255108e-5,"MEAN_MOTION_DOT":7.7e-7,"MEAN_MOTION_DDOT":0},{"OBJECT_NAME":"CENTISPACE-1 OBJECT D","OBJECT_ID":"2026-060D","EPOCH":"2026-04-04T18:47:20.874336","MEAN_MOTION":14.7500838,"ECCENTRICITY":0.00119603,"INCLINATION":54.9868,"RA_OF_ASC_NODE":335.1678,"ARG_OF_PERICENTER":335.0245,"MEAN_ANOMALY":25.0175,"EPHEMERIS_TYPE":0,"CLASSIFICATION_TYPE":"U","NORAD_CAT_ID":68353,"ELEMENT_SET_NO":999,"REV_AT_EPOCH":194,"BSTAR":4.831664e-5,"MEAN_MOTION_DOT":1.18e-6,"MEAN_MOTION_DDOT":0},{"OBJECT_NAME":"CENTISPACE-1 OBJECT E","OBJECT_ID":"2026-060E","EPOCH":"2026-04-04T22:01:22.797408","MEAN_MOTION":14.74992565,"ECCENTRICITY":0.00131532,"INCLINATION":54.9771,"RA_OF_ASC_NODE":334.5948,"ARG_OF_PERICENTER":335.2119,"MEAN_ANOMALY":24.8247,"EPHEMERIS_TYPE":0,"CLASSIFICATION_TYPE":"U","NORAD_CAT_ID":68354,"ELEMENT_SET_NO":999,"REV_AT_EPOCH":196,"BSTAR":4.2708519e-5,"MEAN_MOTION_DOT":8.0e-7,"MEAN_MOTION_DDOT":0},{"OBJECT_NAME":"CENTISPACE-1 OBJECT F","OBJECT_ID":"2026-060F","EPOCH":"2026-04-04T22:01:23.284704","MEAN_MOTION":14.75073657,"ECCENTRICITY":0.00133934,"INCLINATION":54.9761,"RA_OF_ASC_NODE":334.5955,"ARG_OF_PERICENTER":331.7491,"MEAN_ANOMALY":28.278,"EPHEMERIS_TYPE":0,"CLASSIFICATION_TYPE":"U","NORAD_CAT_ID":68355,"ELEMENT_SET_NO":999,"REV_AT_EPOCH":196,"BSTAR":4.2621137e-5,"MEAN_MOTION_DOT":8.0e-7,"MEAN_MOTION_DDOT":0},{"OBJECT_NAME":"CENTISPACE-1 OBJECT G","OBJECT_ID":"2026-060G","EPOCH":"2026-04-04T15:29:48.717600","MEAN_MOTION":14.75216843,"ECCENTRICITY":0.0014233,"INCLINATION":54.9929,"RA_OF_ASC_NODE":335.7064,"ARG_OF_PERICENTER":337.97,"MEAN_ANOMALY":22.0687,"EPHEMERIS_TYPE":0,"CLASSIFICATION_TYPE":"U","NORAD_CAT_ID":68356,"ELEMENT_SET_NO":999,"REV_AT_EPOCH":192,"BSTAR":4.9346e-5,"MEAN_MOTION_DOT":1.26e-6,"MEAN_MOTION_DDOT":0},{"OBJECT_NAME":"CENTISPACE-1 OBJECT H","OBJECT_ID":"2026-060H","EPOCH":"2026-04-02T09:49:01.049088","MEAN_MOTION":14.75277593,"ECCENTRICITY":0.00138214,"INCLINATION":54.9838,"RA_OF_ASC_NODE":344.8287,"ARG_OF_PERICENTER":328.1926,"MEAN_ANOMALY":31.8237,"EPHEMERIS_TYPE":0,"CLASSIFICATION_TYPE":"U","NORAD_CAT_ID":68357,"ELEMENT_SET_NO":999,"REV_AT_EPOCH":159,"BSTAR":4.8805088e-5,"MEAN_MOTION_DOT":1.23e-6,"MEAN_MOTION_DDOT":0},{"OBJECT_NAME":"CENTISPACE-1 OBJECT J","OBJECT_ID":"2026-060J","EPOCH":"2026-04-04T21:58:50.217600","MEAN_MOTION":14.75290843,"ECCENTRICITY":0.00150374,"INCLINATION":54.983,"RA_OF_ASC_NODE":334.5877,"ARG_OF_PERICENTER":333.6169,"MEAN_ANOMALY":26.4063,"EPHEMERIS_TYPE":0,"CLASSIFICATION_TYPE":"U","NORAD_CAT_ID":68358,"ELEMENT_SET_NO":999,"REV_AT_EPOCH":196,"BSTAR":4.2542691e-5,"MEAN_MOTION_DOT":8.0e-7,"MEAN_MOTION_DDOT":0}]
